MEAN_MOTION;ECCENTRICITY;INCLINATION;RA_OF_ASC_NODE;ARG_OF_PERICENTER;MEAN_ANOMALY;BSTAR;MEAN_MOTION_DOT;MEAN_MOTION_DDOT;TYPE
2.0056283;0.0073618;56.3589;318.9351;59.1512;301.6226;0;-2.2E-7;0;Navigation
2.0056283;0.0073618;56.3589;318.9351;59.1512;301.6226;0;-2.2E-7;0;Navigation
2.00562867;0.007363;56.3586;318.9155;59.1676;301.6074;0;-2.1E-7;0;Navigation
2.00562894;0.0073636;56.3583;318.8959;59.1651;301.6109;0;-2.1E-7;0;Navigation
2.00562927;0.0073664;56.358;318.8763;59.1964;301.5812;0;-2.1E-7;0;Navigation
2.00562952;0.0073681;56.3577;318.8568;59.2107;301.5682;0;-2.1E-7;0;Navigation
2.00562986;0.0073704;56.3574;318.8372;59.2464;301.5339;0;-2.2E-7;0;Navigation
2.00563021;0.0073703;56.357;318.8176;59.2301;301.5507;0;-2.4E-7;0;Navigation
2.00563021;0.0073703;56.357;318.8176;59.2301;301.5507;0;-2.4E-7;0;Navigation
2.00563183;0.0073736;56.3558;318.7393;59.2734;301.5073;0;-3.7E-7;0;Navigation
2.0056323;0.0073755;56.3555;318.7198;59.2979;301.482;0;-4.2E-7;0;Navigation
2.0056323;0.0073755;56.3555;318.7198;59.2979;301.482;0;-4.2E-7;0;Navigation
2.00563314;0.0073798;56.3548;318.6806;59.3416;301.4361;0;-5.0E-7;0;Navigation
2.00563314;0.0073798;56.3548;318.6806;59.3416;301.4361;0;-5.0E-7;0;Navigation
2.00563457;0.0073831;56.3539;318.6218;59.3817;301.3911;0;-6.1E-7;0;Navigation
2.00563457;0.0073831;56.3539;318.6218;59.3817;301.3911;0;-6.1E-7;0;Navigation
2.00563457;0.0073831;56.3539;318.6218;59.3817;301.3911;0;-6.1E-7;0;Navigation
2.00563585;0.0073898;56.353;318.5631;59.4473;301.3222;0;-6.5E-7;0;Navigation
2.00563585;0.0073898;56.353;318.5631;59.4473;301.3222;0;-6.5E-7;0;Navigation
2.00563761;0.0073906;56.3518;318.4848;59.4751;301.293;0;-5.9E-7;0;Navigation
2.0056383;0.0073934;56.3515;318.4652;59.5028;301.2662;0;-5.6E-7;0;Navigation
2.00563943;0.0073945;56.3509;318.426;59.5227;301.2482;0;-4.9E-7;0;Navigation
2.0056399;0.0073941;56.3506;318.4064;59.5354;301.2367;0;-4.6E-7;0;Navigation
2.00564018;0.0073958;56.3503;318.3869;59.553;301.2207;0;-4.2E-7;0;Navigation
2.00564018;0.0073958;56.3503;318.3869;59.553;301.2207;0;-4.2E-7;0;Navigation
2.00564018;0.0073958;56.3503;318.3869;59.553;301.2207;0;-4.2E-7;0;Navigation
2.00564018;0.0073958;56.3503;318.3869;59.553;301.2207;0;-4.2E-7;0;Navigation
2.00564018;0.0073958;56.3503;318.3869;59.553;301.2207;0;-4.2E-7;0;Navigation
2.00564301;0.0074051;56.3479;318.2304;59.6751;301.1092;0;-2.7E-7;0;Navigation
2.00564301;0.0074051;56.3479;318.2304;59.6751;301.1092;0;-2.7E-7;0;Navigation
2.00564317;0.0074067;56.3476;318.2109;59.6974;301.0875;0;-2.6E-7;0;Navigation
2.00564327;0.0074073;56.3473;318.1914;59.7111;301.0738;0;-2.6E-7;0;Navigation
2.00564388;0.0074098;56.3467;318.1523;59.7492;301.0352;0;-2.6E-7;0;Navigation
2.00564419;0.0074077;56.3465;318.1328;59.7406;301.0425;0;-2.6E-7;0;Navigation
2.0056444;0.0074081;56.3462;318.1132;59.7679;301.0142;0;-2.5E-7;0;Navigation
2.0056444;0.0074081;56.3462;318.1132;59.7679;301.0142;0;-2.5E-7;0;Navigation
2.00564497;0.0074114;56.3453;318.0545;59.8329;300.9454;0;-2.5E-7;0;Navigation
2.00564514;0.007413;56.345;318.035;59.8445;300.9324;0;-2.4E-7;0;Navigation
2.00564549;0.0074151;56.3447;318.0154;59.8737;300.9019;0;-2.3E-7;0;Navigation
2.00564576;0.007416;56.3443;317.9959;59.8845;300.8897;0;-2.3E-7;0;Navigation
2.00564619;0.0074184;56.3437;317.9568;59.9131;300.859;0;-2.1E-7;0;Navigation
2.00564644;0.0074188;56.3434;317.9372;59.9167;300.8546;0;-1.9E-7;0;Navigation
2.00564644;0.0074188;56.3434;317.9372;59.9167;300.8546;0;-1.9E-7;0;Navigation
2.00564706;0.0074222;56.3426;317.8982;59.9675;300.8036;0;-1.7E-7;0;Navigation
2.00564746;0.0074242;56.3421;317.859;59.9978;300.7741;0;-1.5E-7;0;Navigation
2.00564801;0.0074269;56.3415;317.8198;60.0375;300.7361;0;-1.4E-7;0;Navigation
2.00564801;0.0074269;56.3415;317.8198;60.0375;300.7361;0;-1.4E-7;0;Navigation
2.00564865;0.0074285;56.3409;317.7807;60.0773;300.6979;0;-1.5E-7;0;Navigation
2.00564865;0.0074285;56.3409;317.7807;60.0773;300.6979;0;-1.5E-7;0;Navigation
2.00564982;0.0074295;56.34;317.722;60.0711;300.7044;0;-2.1E-7;0;Navigation
2.00565053;0.0074317;56.3393;317.6829;60.0983;300.6761;0;-2.9E-7;0;Navigation
2.00565116;0.0074321;56.3387;317.6437;60.1628;300.6091;0;-3.8E-7;0;Navigation
2.00565206;0.0074304;56.3381;317.6046;60.1987;300.5692;0;-4.8E-7;0;Navigation
2.00565293;0.0074311;56.3379;317.585;60.2109;300.5549;0;-5.2E-7;0;Navigation
2.00565337;0.0074315;56.3376;317.5654;60.2277;300.5359;0;-5.5E-7;0;Navigation
2.00565451;0.007434;56.3366;317.5067;60.2791;300.479;0;-6.2E-7;0;Navigation
2.00565472;0.0074334;56.3366;317.5067;60.2879;300.4702;0;-6.2E-7;0;Navigation
2.00565472;0.0074334;56.3366;317.5067;60.2879;300.4702;0;-6.2E-7;0;Navigation
2.0056557;0.0074344;56.336;317.4676;60.309;300.4466;0;-6.2E-7;0;Navigation
2.0056557;0.0074344;56.336;317.4676;60.309;300.4466;0;-6.2E-7;0;Navigation
2.00565655;0.0074353;56.3354;317.4285;60.3576;300.3971;0;-5.9E-7;0;Navigation
2.0056576;0.0074365;56.3345;317.3698;60.3647;300.3908;0;-5.1E-7;0;Navigation
2.00565783;0.007438;56.3346;317.3698;60.3922;300.3636;0;-5.1E-7;0;Navigation
2.00565865;0.0074386;56.334;317.3307;60.4278;300.33;0;-4.5E-7;0;Navigation
2.00565963;0.0074386;56.3333;317.2916;60.4656;300.2946;0;-4.0E-7;0;Navigation
2.0056603;0.0074388;56.3331;317.272;60.4817;300.2797;0;-3.7E-7;0;Navigation
2.00566064;0.0074391;56.3328;317.2525;60.4848;300.2777;0;-3.5E-7;0;Navigation
2.00566101;0.0074392;56.3322;317.2134;60.5051;300.2595;0;-3.2E-7;0;Navigation
2.0056613;0.0074394;56.3319;317.1939;60.5195;300.2459;0;-3.1E-7;0;Navigation
2.0056613;0.0074394;56.3319;317.1939;60.5195;300.2459;0;-3.1E-7;0;Navigation
2.00566208;0.0074398;56.3313;317.1548;60.5637;300.2026;0;-3.1E-7;0;Navigation
2.00566231;0.0074397;56.3309;317.1353;60.5856;300.1806;0;-3.0E-7;0;Navigation
2.00566257;0.0074399;56.3306;317.1157;60.6032;300.1628;0;-3.1E-7;0;Navigation
2.00566277;0.0074398;56.3303;317.0962;60.6239;300.1415;0;-3.1E-7;0;Navigation
2.00566301;0.0074401;56.33;317.0767;60.6336;300.1309;0;-3.1E-7;0;Navigation
2.00566319;0.0074402;56.3298;317.0571;60.651;300.1125;0;-3.1E-7;0;Navigation
2.00566394;0.0074434;56.3291;317.018;60.6614;300.0993;0;-3.1E-7;0;Navigation
2.00566394;0.0074434;56.3291;317.018;60.6614;300.0993;0;-3.1E-7;0;Navigation
2.00566388;0.0074434;56.3291;317.018;60.6578;300.1029;0;-3.1E-7;0;Navigation
2.00566417;0.0074423;56.3288;316.9985;60.6943;300.0649;0;-3.1E-7;0;Navigation
2.00566436;0.0074425;56.3286;316.9789;60.7074;300.0501;0;-3.1E-7;0;Navigation
2.0056647;0.007442;56.328;316.9399;60.749;300.0051;0;-2.9E-7;0;Navigation
2.0056647;0.007442;56.328;316.9399;60.749;300.0051;0;-2.9E-7;0;Navigation
2.00566524;0.0074414;56.3271;316.8813;60.8097;299.9407;0;-2.7E-7;0;Navigation
2.00566552;0.0074428;56.3264;316.8422;60.8083;299.9411;0;-2.4E-7;0;Navigation
2.00566552;0.0074428;56.3264;316.8422;60.8083;299.9411;0;-2.4E-7;0;Navigation
2.00566598;0.007443;56.3261;316.8226;60.8308;299.9185;0;-2.3E-7;0;Navigation
2.00566644;0.0074433;56.3255;316.7835;60.8601;299.8899;0;-2.1E-7;0;Navigation
2.0056666;0.0074441;56.3252;316.764;60.8715;299.8792;0;-2.1E-7;0;Navigation
2.0056666;0.0074441;56.3252;316.764;60.8715;299.8792;0;-2.1E-7;0;Navigation
2.00566762;0.0074436;56.3243;316.7053;60.9195;299.8332;0;-2.2E-7;0;Navigation
2.00566795;0.0074437;56.324;316.6858;60.9314;299.8217;0;-2.4E-7;0;Navigation
2.00566828;0.0074437;56.3234;316.6467;60.9532;299.7999;0;-3.0E-7;0;Navigation
2.00566863;0.0074432;56.3234;316.6467;60.9645;299.7885;0;-3.0E-7;0;Navigation
2.00566863;0.0074432;56.3234;316.6467;60.9645;299.7885;0;-3.0E-7;0;Navigation
2.00566958;0.0074437;56.3224;316.5881;61.0023;299.748;0;-4.4E-7;0;Navigation
2.00566958;0.0074437;56.3224;316.5881;61.0023;299.748;0;-4.4E-7;0;Navigation
2.00567141;0.0074426;56.3211;316.51;61.0492;299.6931;0;-6.3E-7;0;Navigation
2.00567207;0.0074436;56.3205;316.4709;61.0649;299.6733;0;-6.9E-7;0;Navigation
2.00567325;0.0074427;56.3201;316.4513;61.0917;299.6446;0;-7.2E-7;0;Navigation
2.00567393;0.0074427;56.3194;316.4123;61.112;299.6215;0;-7.4E-7;0;Navigation
2.00567463;0.0074417;56.319;316.3927;61.126;299.6065;0;-7.3E-7;0;Navigation
2.00567558;0.0074416;56.3184;316.3537;61.1566;299.5754;0;-7.0E-7;0;Navigation
2.00567603;0.0074413;56.3181;316.3341;61.1687;299.5634;0;-6.8E-7;0;Navigation
2.00567603;0.0074413;56.3181;316.3341;61.1687;299.5634;0;-6.8E-7;0;Navigation
2.00567688;0.0074404;56.3174;316.2951;61.1967;299.5368;0;-6.3E-7;0;Navigation
2.00567688;0.0074404;56.3174;316.2951;61.1967;299.5368;0;-6.3E-7;0;Navigation
2.00567811;0.0074391;56.3163;316.2365;61.2425;299.4948;0;-5.4E-7;0;Navigation
2.00567873;0.0074384;56.3158;316.1974;61.2812;299.4591;0;-5.0E-7;0;Navigation
2.00567922;0.0074383;56.3153;316.1584;61.2853;299.4575;0;-4.7E-7;0;Navigation
2.00567953;0.0074375;56.3149;316.1388;61.2948;299.449;0;-4.6E-7;0;Navigation
2.00567986;0.0074377;56.3147;316.1193;61.2989;299.4457;0;-4.6E-7;0;Navigation
2.00568012;0.0074373;56.3143;316.0998;61.3085;299.4368;0;-4.5E-7;0;Navigation
2.00568041;0.0074352;56.3144;316.0999;61.3241;299.421;0;-4.5E-7;0;Navigation
2.00568067;0.0074352;56.3138;316.0608;61.3427;299.403;0;-4.6E-7;0;Navigation
2.00568077;0.0074353;56.3138;316.0609;61.3501;299.3956;0;-4.6E-7;0;Navigation
2.00568105;0.0074348;56.3134;316.0413;61.3712;299.3744;0;-4.6E-7;0;Navigation
2.00568137;0.0074345;56.3127;316.0023;61.3921;299.3524;0;-4.6E-7;0;Navigation
2.00568137;0.0074345;56.3127;316.0023;61.3921;299.3524;0;-4.6E-7;0;Navigation
2.00568177;0.007433;56.3123;315.9827;61.425;299.3185;0;-4.7E-7;0;Navigation
2.00568177;0.007433;56.3123;315.9827;61.425;299.3185;0;-4.7E-7;0;Navigation
2.00568177;0.007433;56.3123;315.9827;61.425;299.3185;0;-4.7E-7;0;Navigation
2.00568177;0.007433;56.3123;315.9827;61.425;299.3185;0;-4.7E-7;0;Navigation
2.00568308;0.0074291;56.31;315.8461;61.5195;299.2154;0;-4.3E-7;0;Navigation
2.00568323;0.0074288;56.31;315.8461;61.5272;299.2077;0;-4.3E-7;0;Navigation
2.00568351;0.0074284;56.3093;315.8071;61.5422;299.1914;0;-4.1E-7;0;Navigation
2.0056837;0.0074276;56.3093;315.8071;61.5489;299.1846;0;-4.1E-7;0;Navigation
